NORAD_CAT_ID,OBJECT_NAME,OBJECT_TYPE,EPOCH,MEAN_MOTION,ECCENTRICITY,INCLINATION,RA_OF_ASC_NODE,ARG_OF_PERICENTER,MEAN_ANOMALY,BSTAR,MEAN_MOTION_DOT,MEAN_MOTION_DDOT,TLE_LINE0,TLE_LINE1,TLE_LINE2,SEMIMAJOR_AXIS,PERIOD,APOGEE,PERIGEE,DECAYED
53930.0,STARLINK-5010,PAYLOAD,2022-10-09 22:00:00,15.7320911,0.0001188,53.2191,178.9634,95.4233,243.1519,-0.00017505,-0.00025123,0.0,0 STARLINK-5010,1 53930U 22119AW  22282.91667824 -.00025123  00000-0 -17505-3 0  9990,2 53930  53.2191 178.9634 0001188  95.4233 243.1519 15.73209110  1303,6727.869000000002,91.533,350.533,348.935,0.0
53930.0,STARLINK-5010,PAYLOAD,2022-10-10 14:00:01,15.73209598,0.0001047,53.2182,175.6627,108.6286,47.8913,0.00014412,0.00019662,0.0,0 STARLINK-5010,1 53930U 22119AW  22283.58334491  .00019662  00000-0  14412-3 0  9998,2 53930  53.2182 175.6627 0001047 108.6286  47.8913 15.73209598  2890,6727.868,91.533,350.43699999999984,349.028,0.0
53930.0,STARLINK-5010,PAYLOAD,2022-10-10 20:00:01,15.73356026,0.000118,53.2179,174.4204,104.9292,28.2785,-0.0026601999999999,-0.00360795,0.0,0 STARLINK-5010,1 53930U 22119AW  22283.83334491 -.00360795  00000-0 -26602-2 0  9997,2 53930  53.2179 174.4204 0001180 104.9292  28.2785 15.73356026  2932,6727.45,91.524,350.1090000000001,348.522,0.0
53930.0,STARLINK-5010,PAYLOAD,2022-10-10 22:00:01,15.73362682,0.0001091,53.218,174.007,103.3291,142.1892,-0.0036596,-0.00488848,0.0,0 STARLINK-5010,1 53930U 22119AW  22283.91668981 -.00488848  00000-0 -36596-2 0  9993,2 53930  53.2180 174.0070 0001091 103.3291 142.1892 15.73362682  1304,6727.431,91.524,350.03,348.56199999999984,0.0
53930.0,STARLINK-5010,PAYLOAD,2022-10-11 06:00:00,15.73187113,0.0001159,53.2173,172.3609,89.5535,244.7458,-0.00015232,-0.00021929,0.0,0 STARLINK-5010,1 53930U 22119AW  22284.25001157 -.00021929  00000-0 -15232-3 0  9995,2 53930  53.2173 172.3609 0001159  89.5535 244.7458 15.73187113  2993,6727.932,91.534,350.577,349.017,0.0
53930.0,STARLINK-5010,PAYLOAD,2022-10-11 14:00:01,15.73121074,0.0001190999999999,53.2176,170.7015,97.0622,326.1606,0.00094027,0.00132997,0.0,0 STARLINK-5010,1 53930U 22119AW  22284.58334491  .00132997  00000-0  94027-3 0  9996,2 53930  53.2176 170.7015 0001191  97.0622 326.1606 15.73121074  1304,6728.12,91.538,350.787,349.184,0.0
53930.0,STARLINK-5010,PAYLOAD,2022-10-11 22:00:00,15.73205783,0.0001313,53.218,169.06799999999996,96.2852,55.7264,0.00032061,0.00044626,0.0,0 STARLINK-5010,1 53930U 22119AW  22284.91667824  .00044626  00000-0  32061-3 0  9993,2 53930  53.2180 169.0680 0001313  96.2852  55.7264 15.73205783  1305,6727.879,91.533,350.62699999999984,348.86,0.0
53930.0,STARLINK-5010,PAYLOAD,2022-10-12 04:00:00,15.73179834,0.0001065999999999,53.2178,167.8297,93.8078,34.9282,0.00062643,0.00088145,0.0,0 STARLINK-5010,1 53930U 22119AW  22285.16667824  .00088145  00000-0  62643-3 0  9994,2 53930  53.2178 167.8297 0001066  93.8078  34.9282 15.73179834  3140,6727.953,91.534,350.535,349.1,0.0
53930.0,STARLINK-5010,PAYLOAD,2022-10-12 12:00:00,15.73161512,0.0001051,53.2177,166.1716,99.8063,117.8953,0.00096768,0.00137199,0.0,0 STARLINK-5010,1 53930U 22119AW  22285.50001157  .00137199  00000-0  96768-3 0  9992,2 53930  53.2177 166.1716 0001051  99.8063 117.8953 15.73161512  3196,6728.005,91.535,350.577,349.163,0.0
53930.0,STARLINK-5010,PAYLOAD,2022-10-12 14:00:01,15.73171237,0.0001115,53.2174,165.7575,100.6759,229.2598,0.00099274,0.00140889,0.0,0 STARLINK-5010,1 53930U 22119AW  22285.58334491  .00140889  00000-0  99274-3 0  9995,2 53930  53.2174 165.7575 0001115 100.6759 229.2598 15.73171237  1304,6727.977,91.535,350.592,349.092,0.0
53930.0,STARLINK-5010,PAYLOAD,2022-10-12 20:00:01,15.73297295,0.0001134,53.2176,164.5173,94.8921,211.7428,-0.0010039,-0.00139771,0.0,0 STARLINK-5010,1 53930U 22119AW  22285.83334491 -.00139771  00000-0 -10039-2 0  9994,2 53930  53.2176 164.5173 0001134  94.8921 211.7428 15.73297295  3249,6727.618,91.528,350.246,348.72,0.0
53930.0,STARLINK-5010,PAYLOAD,2022-10-12 22:00:00,15.73229264,0.0001111,53.2176,164.1041,90.0291,328.8779,-0.00029535,-0.00041915,0.0,0 STARLINK-5010,1 53930U 22119AW  22285.91667824 -.00041915  00000-0 -29535-3 0  9996,2 53930  53.2176 164.1041 0001111  90.0291 328.8779 15.73229264  1307,6727.812,91.531,350.4240000000001,348.92900000000014,0.0
53930.0,STARLINK-5010,PAYLOAD,2022-10-13 04:00:00,15.73204067,0.0001084,53.2171,162.8656,82.8137,312.8061,1.1093e-05,9.38e-06,0.0,0 STARLINK-5010,1 53930U 22119AW  22286.16667824  .00000938  00000-0  11093-4 0  9993,2 53930  53.2171 162.8656 0001084  82.8137 312.8061 15.73204067  3309,6727.884,91.533,350.478,349.019,0.0
53930.0,STARLINK-5010,PAYLOAD,2022-10-13 14:00:01,15.73005797,0.0001388,53.2169,160.8057,98.8469,138.0643,0.0019301,0.00277074,0.0,0 STARLINK-5010,1 53930U 22119AW  22286.58334491  .00277074  00000-0  19301-2 0  9995,2 53930  53.2169 160.8057 0001388  98.8469 138.0643 15.73005797  1302,6728.449000000001,91.544,351.24800000000016,349.38,0.0
53930.0,STARLINK-5010,PAYLOAD,2022-10-13 22:00:00,15.73204123,0.0001524,53.2173,159.1537,93.9351,231.7872,1.7408e-06,-3.76e-06,0.0,0 STARLINK-5010,1 53930U 22119AW  22286.91667824 -.00000376  00000-0  17408-5 0  9990,2 53930  53.2173 159.1537 0001524  93.9351 231.7872 15.73204123  1308,6727.8830000000025,91.533,350.774,348.723,0.0
53930.0,STARLINK-5010,PAYLOAD,2022-10-14 06:00:00,15.73310805,0.0001048,53.217,157.5129,94.8912,319.849,-0.0024337,-0.00330645,0.0,0 STARLINK-5010,1 53930U 22119AW  22287.25001157 -.00330645  00000-0 -24337-2 0  9991,2 53930  53.2170 157.5129 0001048  94.8912 319.8490 15.73310805  3477,6727.579000000002,91.527,350.149,348.73900000000015,0.0
53930.0,STARLINK-5010,PAYLOAD,2022-10-14 14:00:01,15.73076202,0.0001382,53.2173,155.8556,106.4898,37.1638,0.0014472999999999,0.00206471,0.0,0 STARLINK-5010,1 53930U 22119AW  22287.58334491  .00206471  00000-0  14473-2 0  9994,2 53930  53.2173 155.8556 0001382 106.4898  37.1638 15.73076202  3529,6728.248000000001,91.54,351.043,349.18300000000005,0.0
53930.0,STARLINK-5010,PAYLOAD,2022-10-14 18:00:00,15.73206526,0.0001326,53.2177,155.0288,102.1878,265.8698,-2.721800000000001e-05,-4.439e-05,0.0,0 STARLINK-5010,1 53930U 22119AW  22287.75001157 -.00004439  00000-0 -27218-4 0  9998,2 53930  53.2177 155.0288 0001326 102.1878 265.8698 15.73206526  1300,6727.877,91.533,350.634,348.849,0.0
53930.0,STARLINK-5010,PAYLOAD,2022-10-15 14:00:01,15.73168558,0.0001059,53.2169,150.9224,112.1109,298.4018,0.00060943,0.00085669,0.0,0 STARLINK-5010,1 53930U 22119AW  22288.58334491  .00085669  00000-0  60943-3 0  9993,2 53930  53.2169 150.9224 0001059 112.1109 298.4018 15.73168558  3689,6727.985,91.535,350.56199999999984,349.13699999999994,0.0
53930.0,STARLINK-5010,PAYLOAD,2022-10-15 20:00:01,15.73378142,9.58e-05,53.217,149.6788,99.7996,287.4646,-0.0028103,-0.0038058,0.0,0 STARLINK-5010,1 53930U 22119AW  22288.83335648 -.00380580  00000-0 -28103-2 0  9999,2 53930  53.2170 149.6788 0000958  99.7996 287.4646 15.73378142  3713,6727.387,91.523,349.897,348.608,0.0
53930.0,STARLINK-5010,PAYLOAD,2022-10-15 22:00:01,15.73381242,0.0001088,53.217,149.2656,99.7896,39.7267,-0.0038491,-0.0051308,0.0,0 STARLINK-5010,1 53930U 22119AW  22288.91668981 -.00513080  00000-0 -38491-2 0  9991,2 53930  53.2170 149.2656 0001088  99.7896  39.7267 15.73381242  1302,6727.378000000002,91.523,349.975,348.51199999999994,0.0
53930.0,STARLINK-5010,PAYLOAD,2022-10-16 04:00:00,15.73124376,0.0001314,53.2169,148.0378,92.3666,23.76,0.00011968,0.00016155,0.0,0 STARLINK-5010,1 53930U 22119AW  22289.16667824  .00016155  00000-0  11968-3 0  9994,2 53930  53.2169 148.0378 0001314  92.3666  23.7600 15.73124376  3774,6728.111,91.538,350.86,349.092,0.0
53930.0,STARLINK-5010,PAYLOAD,2022-10-16 14:00:01,15.73140646,0.0001426,53.2171,145.9746,103.7,213.4813,0.00069337,0.00097578,0.0,0 STARLINK-5010,1 53930U 22119AW  22289.58334491  .00097578  00000-0  69337-3 0  9992,2 53930  53.2171 145.9746 0001426 103.7000 213.4813 15.73140646  1304,6728.064,91.537,350.889,348.97,0.0
53930.0,STARLINK-5010,PAYLOAD,2022-10-16 20:00:01,15.73228186,0.0001277,53.2168,144.7384,97.4334,196.4082,-0.00043466,-0.00061252,0.0,0 STARLINK-5010,1 53930U 22119AW  22289.83334491 -.00061252  00000-0 -43466-3 0  9997,2 53930  53.2168 144.7384 0001277  97.4334 196.4082 15.73228186  3876,6727.815,91.532,350.539,348.821,0.0
53930.0,STARLINK-5010,PAYLOAD,2022-10-16 22:00:00,15.732196900000002,0.0001246,53.217,144.3242,94.734,311.3452,-0.00038739,-0.0005468,0.0,0 STARLINK-5010,1 53930U 22119AW  22289.91667824 -.00054680  00000-0 -38739-3 0  9999,2 53930  53.2170 144.3242 0001246  94.7340 311.3452 15.73219690  1306,6727.839,91.532,350.542,348.866,0.0
53930.0,STARLINK-5010,PAYLOAD,2022-10-17 04:00:00,15.73173014,0.00011,53.2164,143.0897,92.8115,289.9643,0.00038781,0.00054094,0.0,0 STARLINK-5010,1 53930U 22119AW  22290.16667824  .00054094  00000-0  38781-3 0  9992,2 53930  53.2164 143.0897 0001100  92.8115 289.9643 15.73173014  3920,6727.972,91.535,350.577,349.097,0.0
53930.0,STARLINK-5010,PAYLOAD,2022-10-17 14:00:01,15.73212907,0.0001211999999999,53.2165,141.0256,107.6118,116.3677,0.00036603,0.00051091,0.0,0 STARLINK-5010,1 53930U 22119AW  22290.58334491  .00051091  00000-0  36603-3 0  9994,2 53930  53.2165 141.0256 0001212 107.6118 116.3677 15.73212907  1305,6727.858,91.532,350.539,348.908,0.0
53930.0,STARLINK-5010,PAYLOAD,2022-10-17 22:00:00,15.73219412,0.0001147999999999,53.217,139.3792,95.0175,217.8891,-0.00021127,-0.00030188,0.0,0 STARLINK-5010,1 53930U 22119AW  22290.91667824 -.00030188  00000-0 -21127-3 0  9991,2 53930  53.2170 139.3792 0001148  95.0175 217.8891 15.73219412  4044,6727.84,91.532,350.477,348.932,0.0
53930.0,STARLINK-5010,PAYLOAD,2022-10-18 12:00:00,15.73148819,0.0001137,53.217,136.4906,103.8455,274.7162,0.00068646,0.00096621,0.0,0 STARLINK-5010,1 53930U 22119AW  22291.50001157  .00096621  00000-0  68646-3 0  9997,2 53930  53.2170 136.4906 0001137 103.8455 274.7162 15.73148819  4131,6728.041,91.536,350.671,349.141,0.0
